{"type": "FeatureCollection", "features": [ {"type": "Feature", "properties": {"norad_id": 66520, "name": "STARLINK-35952", "group": "last-30-days", "lat": 17.67333797594107, "lon": -123.01069715970796, "alt_km": 398.49011017562043, "timestamp": "2025-12-08T19:31:47.636334+00:00", "meta": {"OBJECT_NAME": "STARLINK-35952", "OBJECT_ID": "2025-265E", "EPOCH": "2025-12-08T06:00:02.999808", "MEAN_MOTION": 15.57920577, "ECCENTRICITY": 0.00010757, "INCLINATION": 43.0002, "RA_OF_ASC_NODE": 80.3121, "ARG_OF_PERICENTER": 264.3342, "MEAN_ANOMALY": 326.2666, "EPHEMERIS_TYPE": 0, "CLASSIFICATION_TYPE": "U", "NORAD_CAT_ID": 66520, "ELEMENT_SET_NO": 999, "REV_AT_EPOCH": 427, "BSTAR": -0.029280606, "MEAN_MOTION_DOT": -0.0197449, "MEAN_MOTION_DDOT": 0}, "tle": {"line1": "1 66520U 25265E   25342.25003472 -.01974490  00000+0 -29281-1 0  9996", "line2": "2 66520  43.0002  80.3121 0001075 264.3342 326.2666 15.57920577  4274"}}, "geometry": {"type": "Point", "coordinates": [-123.01069715970796, 17.67333797594107]}}, {"type": "Feature", "properties": {"norad_id": 66521, "name": "STARLINK-35915", "group": "last-30-days", "lat": 16.438461434599795, "lon": -121.4798988044033, "alt_km": 398.7609603570518, "timestamp": "2025-12-08T19:31:47.636345+00:00", "meta": {"OBJECT_NAME": "STARLINK-35915", "OBJECT_ID": "2025-265F", "EPOCH": "2025-12-08T06:00:02.999808", "MEAN_MOTION": 15.5792239, "ECCENTRICITY": 0.00010893, "INCLINATION": 43.0005, "RA_OF_ASC_NODE": 80.307, "ARG_OF_PERICENTER": 269.5877, "MEAN_ANOMALY": 322.9264, "EPHEMERIS_TYPE": 0, "CLASSIFICATION_TYPE": "U", "NORAD_CAT_ID": 66521, "ELEMENT_SET_NO": 999, "REV_AT_EPOCH": 427, "BSTAR": -0.029283129, "MEAN_MOTION_DOT": -0.01974767, "MEAN_MOTION_DDOT": 0}, "tle": {"line1": "1 66521U 25265F   25342.25003472 -.01974767  00000+0 -29283-1 0  9996", "line2": "2 66521  43.0005  80.3070 0001089 269.5877 322.9264 15.57922390  4278"}}, "geometry": {"type": "Point", "coordinates": [-121.4798988044033, 16.438461434599795]}}, {"type": "Feature", "properties": {"norad_id": 66522, "name": "STARLINK-35946", "group": "last-30-days", "lat": 15.195995817657897, "lon": -119.9739810618399, "alt_km": 398.95065508751395, "timestamp": "2025-12-08T19:31:47.636358+00:00", "meta": {"OBJECT_NAME": "STARLINK-35946", "OBJECT_ID": "2025-265G", "EPOCH": "2025-12-08T06:00:02.999808", "MEAN_MOTION": 15.57926067, "ECCENTRICITY": 0.00012127, "INCLINATION": 43, "RA_OF_ASC_NODE": 80.3012, "ARG_OF_PERICENTER": 268.0183, "MEAN_ANOMALY": 326.4154, "EPHEMERIS_TYPE": 0, "CLASSIFICATION_TYPE": "U", "NORAD_CAT_ID": 66522, "ELEMENT_SET_NO": 999, "REV_AT_EPOCH": 427, "BSTAR": -0.029443251, "MEAN_MOTION_DOT": -0.01984555, "MEAN_MOTION_DDOT": 0}, "tle": {"line1": "1 66522U 25265G   25342.25003472 -.01984555  00000+0 -29443-1 0  9991", "line2": "2 66522  43.0000  80.3012 0001212 268.0183 326.4154 15.57926067  4274"}}, "geometry": {"type": "Point", "coordinates": [-119.9739810618399, 15.195995817657897]}}, {"type": "Feature", "properties": {"norad_id": 66523, "name": "STARLINK-35969", "group": "last-30-days", "lat": 13.940555561114158, "lon": -118.48106126817578, "alt_km": 399.1984468289711, "timestamp": "2025-12-08T19:31:47.636367+00:00", "meta": {"OBJECT_NAME": "STARLINK-35969", "OBJECT_ID": "2025-265H", "EPOCH": "2025-12-08T06:00:02.999808", "MEAN_MOTION": 15.57923964, "ECCENTRICITY": 0.0001278, "INCLINATION": 43.0003, "RA_OF_ASC_NODE": 80.2961, "ARG_OF_PERICENTER": 271.0003, "MEAN_ANOMALY": 325.3541, "EPHEMERIS_TYPE": 0, "CLASSIFICATION_TYPE": "U", "NORAD_CAT_ID": 66523, "ELEMENT_SET_NO": 999, "REV_AT_EPOCH": 427, "BSTAR": -0.029437222, "MEAN_MOTION_DOT": -0.01984105, "MEAN_MOTION_DDOT": 0}, "tle": {"line1": "1 66523U 25265H   25342.25003472 -.01984105  00000+0 -29437-1 0  9996", "line2": "2 66523  43.0003  80.2961 0001278 271.0003 325.3541 15.57923964  4278"}}, "geometry": {"type": "Point", "coordinates": [-118.48106126817578, 13.940555561114158]}}, {"type": "Feature", "properties": {"norad_id": 66524, "name": "STARLINK-35687", "group": "last-30-days", "lat": 12.675095083102175, "lon": -117.00309880010472, "alt_km": 399.2340956767903, "timestamp": "2025-12-08T19:31:47.636377+00:00", "meta": {"OBJECT_NAME": "STARLINK-35687", "OBJECT_ID": "2025-265J", "EPOCH": "2025-12-08T06:00:02.999808", "MEAN_MOTION": 15.57922971, "ECCENTRICITY": 0.00010989, "INCLINATION": 43.0003, "RA_OF_ASC_NODE": 80.2914, "ARG_OF_PERICENTER": 267.9674, "MEAN_ANOMALY": 330.3017, "EPHEMERIS_TYPE": 0, "CLASSIFICATION_TYPE": "U", "NORAD_CAT_ID": 66524, "ELEMENT_SET_NO": 999, "REV_AT_EPOCH": 427, "BSTAR": -0.029388501, "MEAN_MOTION_DOT": -0.01981039, "MEAN_MOTION_DDOT": 0}, "tle": {"line1": "1 66524U 25265J   25342.25003472 -.01981039  00000+0 -29389-1 0  9996", "line2": "2 66524  43.0003  80.2914 0001098 267.9674 330.3017 15.57922971  4276"}}, "geometry": {"type": "Point", "coordinates": [-117.00309880010472, 12.675095083102175]}}, {"type": "Feature", "properties": {"norad_id": 66525, "name": "STARLINK-35975", "group": "last-30-days", "lat": 11.398208797771176, "lon": -115.5347869779143, "alt_km": 399.2859568253216, "timestamp": "2025-12-08T19:31:47.636386+00:00", "meta": {"OBJECT_NAME": "STARLINK-35975", "OBJECT_ID": "2025-265K", "EPOCH": "2025-12-08T06:00:02.999808", "MEAN_MOTION": 15.57918655, "ECCENTRICITY": 0.00011104, "INCLINATION": 43.0001, "RA_OF_ASC_NODE": 80.2881, "ARG_OF_PERICENTER": 264.6224, "MEAN_ANOMALY": 335.5633, "EPHEMERIS_TYPE": 0, "CLASSIFICATION_TYPE": "U", "NORAD_CAT_ID": 66525, "ELEMENT_SET_NO": 999, "REV_AT_EPOCH": 427, "BSTAR": -0.029202392, "MEAN_MOTION_DOT": -0.01969762, "MEAN_MOTION_DDOT": 0}, "tle": {"line1": "1 66525U 25265K   25342.25003472 -.01969762  00000+0 -29202-1 0  9990", "line2": "2 66525  43.0001  80.2881 0001110 264.6224 335.5633 15.57918655  4273"}}, "geometry": {"type": "Point", "coordinates": [-115.5347869779143, 11.398208797771176]}}, {"type": "Feature", "properties": {"norad_id": 66526, "name": "STARLINK-35932", "group": "last-30-days", "lat": 10.117714375833478, "lon": -114.08542140386339, "alt_km": 399.4278452224062, "timestamp": "2025-12-08T19:31:47.636395+00:00", "meta": {"OBJECT_NAME": "STARLINK-35932", "OBJECT_ID": "2025-265L", "EPOCH": "2025-12-08T06:00:02.999808", "MEAN_MOTION": 15.57917802, "ECCENTRICITY": 0.00011151, "INCLINATION": 43.0002, "RA_OF_ASC_NODE": 80.283, "ARG_OF_PERICENTER": 264.1165, "MEAN_ANOMALY": 337.9871, "EPHEMERIS_TYPE": 0, "CLASSIFICATION_TYPE": "U", "NORAD_CAT_ID": 66526, "ELEMENT_SET_NO": 999, "REV_AT_EPOCH": 416, "BSTAR": -0.0291814, "MEAN_MOTION_DOT": -0.01968468, "MEAN_MOTION_DDOT": 0}, "tle": {"line1": "1 66526U 25265L   25342.25003472 -.01968468  00000+0 -29181-1 0  9999", "line2": "2 66526  43.0002  80.2830 0001115 264.1165 337.9871 15.57917802  4164"}}, "geometry": {"type": "Point", "coordinates": [-114.08542140386339, 10.117714375833478]}}, {"type": "Feature", "properties": {"norad_id": 66527, "name": "STARLINK-35935", "group": "last-30-days", "lat": 8.833303715574853, "lon": -112.64965896768915, "alt_km": 399.5612299485556, "timestamp": "2025-12-08T19:31:47.636405+00:00", "meta": {"OBJECT_NAME": "STARLINK-35935", "OBJECT_ID": "2025-265M", "EPOCH": "2025-12-08T06:00:02.999808", "MEAN_MOTION": 15.57919779, "ECCENTRICITY": 0.00011202, "INCLINATION": 43.0005, "RA_OF_ASC_NODE": 80.2785, "ARG_OF_PERICENTER": 262.715, "MEAN_ANOMALY": 341.3054, "EPHEMERIS_TYPE": 0, "CLASSIFICATION_TYPE": "U", "NORAD_CAT_ID": 66527, "ELEMENT_SET_NO": 999, "REV_AT_EPOCH": 427, "BSTAR": -0.029253823, "MEAN_MOTION_DOT": -0.01972884, "MEAN_MOTION_DDOT": 0}, "tle": {"line1": "1 66527U 25265M   25342.25003472 -.01972884  00000+0 -29254-1 0  9998", "line2": "2 66527  43.0005  80.2785 0001120 262.7150 341.3054 15.57919779  4270"}}, "geometry": {"type": "Point", "coordinates": [-112.64965896768915, 8.833303715574853]}}, {"type": "Feature", "properties": {"norad_id": 66528, "name": "STARLINK-35928", "group": "last-30-days", "lat": 7.539349472996201, "lon": -111.21971815472158, "alt_km": 399.74227253996196, "timestamp": "2025-12-08T19:31:47.636414+00:00", "meta": {"OBJECT_NAME": "STARLINK-35928", "OBJECT_ID": "2025-265N", "EPOCH": "2025-12-08T06:00:02.999808", "MEAN_MOTION": 15.5791555, "ECCENTRICITY": 0.00010742, "INCLINATION": 43.0006, "RA_OF_ASC_NODE": 80.2738, "ARG_OF_PERICENTER": 264.9149, "MEAN_ANOMALY": 341.0234, "EPHEMERIS_TYPE": 0, "CLASSIFICATION_TYPE": "U", "NORAD_CAT_ID": 66528, "ELEMENT_SET_NO": 999, "REV_AT_EPOCH": 427, "BSTAR": -0.029133483, "MEAN_MOTION_DOT": -0.01965456, "MEAN_MOTION_DDOT": 0}, "tle": {"line1": "1 66528U 25265N   25342.25003472 -.01965456  00000+0 -29133-1 0  9992", "line2": "2 66528  43.0006  80.2738 0001074 264.9149 341.0234 15.57915550  4270"}}, "geometry": {"type": "Point", "coordinates": [-111.21971815472158, 7.539349472996201]}}, {"type": "Feature", "properties": {"norad_id": 66529, "name": "STARLINK-35933", "group": "last-30-days", "lat": 6.248464421034125, "lon": -109.80741606791192, "alt_km": 399.9549277870483, "timestamp": "2025-12-08T19:31:47.636425+00:00", "meta": {"OBJECT_NAME": "STARLINK-35933", "OBJECT_ID": "2025-265P", "EPOCH": "2025-12-08T06:00:02.999808", "MEAN_MOTION": 15.57924433, "ECCENTRICITY": 0.00011153, "INCLINATION": 43.0002, "RA_OF_ASC_NODE": 80.2686, "ARG_OF_PERICENTER": 265.9164, "MEAN_ANOMALY": 341.9349, "EPHEMERIS_TYPE": 0, "CLASSIFICATION_TYPE": "U", "NORAD_CAT_ID": 66529, "ELEMENT_SET_NO": 999, "REV_AT_EPOCH": 427, "BSTAR": -0.029385055, "MEAN_MOTION_DOT": -0.01980943, "MEAN_MOTION_DDOT": 0}, "tle": {"line1": "1 66529U 25265P   25342.25003472 -.01980943  00000+0 -29385-1 0  9990", "line2": "2 66529  43.0002  80.2686 0001115 265.9164 341.9349 15.57924433  4279"}}, "geometry": {"type": "Point", "coordinates": [-109.80741606791192, 6.248464421034125]}}]}